SL-16 R/B               
1 23405U 94077B   26187.19991666 -.00000207  00000+0 -81209-4 0  9996
2 23405  70.9832 103.1643 0003978 310.5568  49.5208 14.15577322633005
ARIANE 40+ R/B          
1 23561U 95021B   26187.16333126  .00000274  00000+0  10104-3 0  9994
2 23561  98.4404 256.9636 0007588 139.7848 273.9058 14.39844219636298
SL-16 R/B               
1 23705U 95058B   26186.71793167 -.00000235  00000+0 -95720-4 0  9996
2 23705  71.0223 292.4525 0014643 295.2412  64.7193 14.15509480584550
SL-16 R/B               
1 24298U 96051B   26187.29425150  .00000147  00000+0  10636-3 0  9998
2 24298  70.7654 284.2127 0017069 309.8546  50.1072 14.12453019538393
ORBVIEW 2 (SEASTAR)     
1 24883U 97037A   26187.04779777  .00000267  00000+0  10895-3 0  9993
2 24883  98.8706 354.5910 0003301  78.7439 281.4117 14.35563714525451
SL-16 R/B               
1 25400U 98043G   26186.88578859  .00000050  00000+0  39985-4 0  9998
2 25400  98.8373 141.2067 0010526  37.0697 323.1208 14.26071696455834
SL-16 R/B               
1 25407U 98045B   26187.23602771 -.00000028  00000+0  98513-5 0  9997
2 25407  71.0127 292.2692 0008609 218.5367 141.5142 14.16207840443883
ISS (ZARYA)             
1 25544U 98067A   26187.08895395  .00007119  00000+0  13761-3 0  9999
2 25544  51.6304 206.5355 0006732 261.2547  98.7678 15.48915600574686
CZ-4B R/B               
1 25732U 99025C   26187.11481238  .00000034  00000+0  37306-4 0  9995
2 25732  98.6474 228.4761 0037164   6.0166  52.4479 14.18286655404958
OKEAN-O                 
1 25860U 99039A   26187.13670159  .00000638  00000+0  90224-4 0  9994
2 25860  97.9306 245.7162 0001066  73.5530 286.5799 14.80490445451915
SL-16 R/B               
1 25861U 99039B   26187.14088283  .00000554  00000+0  76813-4 0  9992
2 25861  97.9827 245.9491 0013699 229.4143 130.5878 14.81864766454403
DELTA 2 R/B             
1 25876U 99041E   26187.14484202  .00001420  00000+0  26634-3 0  9990
2 25876  51.7611 188.0594 0501176 338.0355  19.9752 14.12059544379763
HELIOS 1B               
1 25977U 99064A   26187.27589041  .00001537  00000+0  17361-3 0  9994
2 25977  98.1597  92.9669 0002333  65.4854 294.6605 14.88059710702896
TERRA                   
1 25994U 99068A   26187.26175208  .00000407  00000+0  91760-4 0  9993
2 25994  97.9445 236.0508 0002973 140.6672 284.5270 14.61118907412395
SL-16 R/B               
1 26070U 00006B   26187.28214880 -.00000177  00000+0 -65434-4 0  9990
2 26070  71.0006 208.4748 0016779 352.7665   7.3213 14.15840656365345
TITAN 4B R/B            
1 26474U 00047B   26187.20015018  .00002953  00000+0  18372-3 0  9997
2 26474  67.9889  67.0523 0045984 267.7247  91.8637 15.10304584410808
ENVISAT                 
1 27386U 02009A   26187.32084564  .00000106  00000+0  48100-4 0  9996
2 27386  98.3842 138.2134 0001380  84.9393  82.5758 14.39069460276239
IDEFIX & ARIANE 42P R/B 
1 27422U 02021B   26187.21690911  .00000227  00000+0  10289-3 0  9998
2 27422  98.5941 124.4940 0011326 193.0838 167.0052 14.31091080260976
AQUA                    
1 27424U 02022A   26187.22725197  .00000835  00000+0  17563-3 0  9994
2 27424  98.4287 156.8918 0000717  94.7604  30.4360 14.62188099286057
CZ-4B R/B               
1 27432U 02024C   26187.20334716  .00000040  00000+0  43258-4 0  9995
2 27432  98.8690 239.8991 0050883  47.2547  47.9340 14.14567334245998
MIDORI II (ADEOS-II)    
1 27597U 02056A   26186.89842688  .00000276  00000+0  12624-3 0  9991
2 27597  98.7887 146.3181 0001837  52.5224 307.6124 14.29359881227185
H-2A R/B                
1 27601U 02056E   26186.92467620  .00000251  00000+0  10239-3 0  9993
2 27601  98.3322 142.9171 0070290 168.3692 260.2849 14.33830630231056
CZ-4B R/B               
1 28059U 03049C   26187.00371032  .00000298  00000+0  79967-4 0  9990
2 28059  98.6903 186.5998 0047158 229.7572 129.9495 14.55112147203809
CZ-2C R/B               
1 28222U 04012C   26187.21244435  .00134848  00000+0  61592-3 0  9995
2 28222  97.7062 265.1460 0011237 218.8056 141.2407 15.83303506222905
SL-16 R/B               
1 28353U 04021B   26186.82926601  .00000307  00000+0  18427-3 0  9999
2 28353  71.0018 344.5639 0006556 233.0018 127.0505 14.14612816139549
CZ-4B R/B               
1 28415U 04035C   26187.08973514  .00008316  00000+0  27752-3 0  9996
2 28415  97.3358 219.9523 0028839 266.8169  92.9773 15.30905884198015
CZ-2C R/B               
1 28480U 04046B   26187.26336392  .00000117  00000+0  58277-4 0  9995
2 28480  98.1928  94.8506 0139616 163.7046 196.8694 14.27031347125414
ARIANE 5 R/B            
1 28499U 04049H   26187.05823376  .00000664  00000+0  79612-4 0  9991
2 28499  98.2736   0.0418 0083120 328.2395  31.3820 14.85472076163368
CZ-2D R/B               
1 28738U 05024B   26187.01449109  .00071595  00000+0  54994-3 0  9991
2 28738  97.3474 207.4101 0000809 233.8674 126.2514 15.71840543158293
ALOS (DAICHI)           
1 28931U 06002A   26187.28481072  .00001141  00000+0  19816-3 0  9991
2 28931  98.1331 142.7938 0000811  73.9801 286.1494 14.70090340 90902
