OBJECT_NAME,OBJECT_ID,EPOCH,MEAN_MOTION,ECCENTRICITY,INCLINATION,RA_OF_ASC_NODE,ARG_OF_PERICENTER,MEAN_ANOMALY,EPHEMERIS_TYPE,CLASSIFICATION_TYPE,NORAD_CAT_ID,ELEMENT_SET_NO,REV_AT_EPOCH,BSTAR,MEAN_MOTION_DOT,MEAN_MOTION_DDOT
SL-16 R/B,1994-077B,2026-07-06T04:47:52.799424,14.15577322,.00039786,70.9832,103.1643,310.5568,49.5208,0,U,23405,999,63300,-.81209472E-4,-.207E-5,0
ARIANE 40+ R/B,1995-021B,2026-07-06T03:55:11.820864,14.39844219,.00075883,98.4404,256.9636,139.7848,273.9058,0,U,23561,999,63629,.10103557E-3,.274E-5,0
SL-16 R/B,1995-058B,2026-07-05T17:13:49.296288,14.15509480,.00146433,71.0223,292.4525,295.2412,64.7193,0,U,23705,999,58455,-.95720488E-4,-.235E-5,0
SL-16 R/B,1996-051B,2026-07-06T07:03:43.329600,14.12453019,.00170697,70.7654,284.2127,309.8546,50.1072,0,U,24298,999,53839,.1063635E-3,.147E-5,0
ORBVIEW 2 (SEASTAR),1997-037A,2026-07-06T01:08:49.727328,14.35563714,.00033013,98.8706,354.5910,78.7439,281.4117,0,U,24883,999,52545,.1089547E-3,.267E-5,0
SL-16 R/B,1998-043G,2026-07-05T21:15:32.134176,14.26071696,.00105262,98.8373,141.2067,37.0697,323.1208,0,U,25400,999,45583,.39984942E-4,.5E-6,0
SL-16 R/B,1998-045B,2026-07-06T05:39:52.794144,14.16207840,.00086099,71.0127,292.2692,218.5367,141.5142,0,U,25407,999,44388,.9851335E-5,-.28E-6,0
ISS (ZARYA),1998-067A,2026-07-06T02:08:05.621280,15.48915600,.00067325,51.6304,206.5355,261.2547,98.7678,0,U,25544,999,57468,.13761082E-3,.7119E-4,0
CZ-4B R/B,1999-025C,2026-07-06T02:45:19.789632,14.18286655,.00371644,98.6474,228.4761,6.0166,52.4479,0,U,25732,999,40495,.3730589E-4,.34E-6,0
OKEAN-O,1999-039A,2026-07-06T03:16:51.017376,14.80490445,.00010665,97.9306,245.7162,73.5530,286.5799,0,U,25860,999,45191,.9022383E-4,.638E-5,0
SL-16 R/B,1999-039B,2026-07-06T03:22:52.276512,14.81864766,.00136999,97.9827,245.9491,229.4143,130.5878,0,U,25861,999,45440,.7681301E-4,.554E-5,0
DELTA 2 R/B,1999-041E,2026-07-06T03:28:34.350528,14.12059544,.05011765,51.7611,188.0594,338.0355,19.9752,0,U,25876,999,37976,.26634321E-3,.142E-4,0
HELIOS 1B,1999-064A,2026-07-06T06:37:16.931424,14.88059710,.00023336,98.1597,92.9669,65.4854,294.6605,0,U,25977,999,70289,.17361475E-3,.1537E-4,0
TERRA,1999-068A,2026-07-06T06:16:55.379712,14.61118907,.00029739,97.9445,236.0508,140.6672,284.5270,0,U,25994,999,41239,.91760031E-4,.407E-5,0
SL-16 R/B,2000-006B,2026-07-06T06:46:17.656320,14.15840656,.00167798,71.0006,208.4748,352.7665,7.3213,0,U,26070,999,36534,-.65434035E-4,-.177E-5,0
TITAN 4B R/B,2000-047B,2026-07-06T04:48:12.975552,15.10304584,.00459842,67.9889,67.0523,267.7247,91.8637,0,U,26474,999,41080,.18372225E-3,.2953E-4,0
ENVISAT,2002-009A,2026-07-06T07:42:01.063296,14.39069460,.00013801,98.3842,138.2134,84.9393,82.5758,0,U,27386,999,27623,.48099615E-4,.106E-5,0
IDEFIX & ARIANE 42P R/B,2002-021B,2026-07-06T05:12:20.947104,14.31091080,.00113263,98.5941,124.4940,193.0838,167.0052,0,U,27422,999,26097,.10288781E-3,.227E-5,0
AQUA,2002-022A,2026-07-06T05:27:14.570208,14.62188099,.0000717,98.4287,156.8918,94.7604,30.4360,0,U,27424,999,28605,.1756285E-3,.835E-5,0
CZ-4B R/B,2002-024C,2026-07-06T04:52:49.194624,14.14567334,.00508832,98.8690,239.8991,47.2547,47.9340,0,U,27432,999,24599,.4325841E-4,.4E-6,0
MIDORI II (ADEOS-II),2002-056A,2026-07-05T21:33:44.082432,14.29359881,.00018373,98.7887,146.3181,52.5224,307.6124,0,U,27597,999,22718,.12623989E-3,.276E-5,0
H-2A R/B,2002-056E,2026-07-05T22:11:32.023680,14.33830630,.007029,98.3322,142.9171,168.3692,260.2849,0,U,27601,999,23105,.10239008E-3,.251E-5,0
CZ-4B R/B,2003-049C,2026-07-06T00:05:20.571648,14.55112147,.00471585,98.6903,186.5998,229.7572,129.9495,0,U,28059,999,20380,.7996709E-4,.298E-5,0
CZ-2C R/B,2004-012C,2026-07-06T05:05:55.191840,15.83303506,.00112371,97.7062,265.1460,218.8056,141.2407,0,U,28222,999,22290,.61592491E-3,.134848E-2,0
SL-16 R/B,2004-021B,2026-07-05T19:54:08.583264,14.14612816,.00065566,71.0018,344.5639,233.0018,127.0505,0,U,28353,999,13954,.18427455E-3,.307E-5,0
CZ-4B R/B,2004-035C,2026-07-06T02:09:13.116096,15.30905884,.00288396,97.3358,219.9523,266.8169,92.9773,0,U,28415,999,19801,.27751919E-3,.8316E-4,0
CZ-2C R/B,2004-046B,2026-07-06T06:19:14.642688,14.27031347,.01396164,98.1928,94.8506,163.7046,196.8694,0,U,28480,999,12541,.58276906E-4,.117E-5,0
ARIANE 5 R/B,2004-049H,2026-07-06T01:23:51.396864,14.85472076,.00831204,98.2736,0.0418,328.2395,31.3820,0,U,28499,999,16336,.79612171E-4,.664E-5,0
CZ-2D R/B,2005-024B,2026-07-06T00:20:52.030176,15.71840543,.00008097,97.3474,207.4101,233.8674,126.2514,0,U,28738,999,15829,.54993551E-3,.71595E-3,0
ALOS (DAICHI),2006-002A,2026-07-06T06:50:07.646208,14.70090340,.00008111,98.1331,142.7938,73.9801,286.1494,0,U,28931,999,9090,.19816373E-3,.1141E-4,0
